HELIOS 2A               
1 28492U 04049A   23029.44776128  .00003800  00000+0  36214-3 0  9996
2 28492  98.2633 348.4440 0015501  63.0309 297.2474 14.93935537968858
SPIRALE A               
1 33751U 09008C   23029.16843184  .00000292  00000+0  95271-3 0  9996
2 33751   2.1052  41.6052 5464852 312.2670  12.7067  4.58915287205092
SPIRALE B               
1 33752U 09008D   23028.52926453  .00002895  00000+0  11692-2 0  9992
2 33752   2.2093 356.8668 6837050  30.5259 355.6236  2.83733235131453
SAPPHIRE                
1 39088U 13009C   23028.80802929  .00000191  00000+0  82981-4 0  9996
2 39088  98.4161 223.8327 0010813 332.1509  27.9096 14.34373575519428
